NORAD_CAT_ID,OBJECT_NAME,OBJECT_TYPE,EPOCH,MEAN_MOTION,ECCENTRICITY,INCLINATION,RA_OF_ASC_NODE,ARG_OF_PERICENTER,MEAN_ANOMALY,BSTAR,MEAN_MOTION_DOT,MEAN_MOTION_DDOT,TLE_LINE0,TLE_LINE1,TLE_LINE2,SEMIMAJOR_AXIS,PERIOD,APOGEE,PERIGEE,DECAYED
52285.0,STARLINK-3775,PAYLOAD,2023-01-28 13:50:47,15.08834123,0.0003092,53.2168,169.3404,26.6287,333.4863,-8.9476e-05,-1.712e-05,0.0,0 STARLINK-3775,1 52285U 22041AA  23028.57693733 -.00001712  00000-0 -89476-4 0  9990,2 52285  53.2168 169.3404 0003092  26.6287 333.4863 15.08834123 42855,6917.898,95.438,541.902,537.624,0.0
52285.0,STARLINK-3775,PAYLOAD,2023-01-28 18:36:56,15.08839954,0.0003014,53.2159,168.4461,23.7686,336.3445,-0.00010228,-1.916e-05,0.0,0 STARLINK-3775,1 52285U 22041AA  23028.77565313 -.00001916  00000-0 -10228-3 0  9998,2 52285  53.2159 168.4461 0003014  23.7686 336.3445 15.08839954 44119,6917.881,95.438,541.831,537.66,0.0
52285.0,STARLINK-3775,PAYLOAD,2023-01-29 15:16:56,15.08840659,0.0003122,53.216,164.5817,23.5835,336.53,6.4871e-05,7.44e-06,0.0,0 STARLINK-3775,1 52285U 22041AA  23029.63676970  .00000744  00000-0  64871-4 0  9996,2 52285  53.2160 164.5817 0003122  23.5835 336.5300 15.08840659 43011,6917.878,95.438,541.903,537.584,0.0
52285.0,STARLINK-3775,PAYLOAD,2023-01-30 02:24:42,15.08803717,0.0002953,53.2182,162.4972,28.7741,331.3413,-0.00022559,-3.874e-05,0.0,0 STARLINK-3775,1 52285U 22041AA  23030.10048684 -.00003874  00000-0 -22559-3 0  9990,2 52285  53.2182 162.4972 0002953  28.7741 331.3413 15.08803717 44314,6917.991,95.44,541.899,537.813,0.0
52285.0,STARLINK-3775,PAYLOAD,2023-01-30 11:56:59,15.0882944,0.0002901,53.216,160.716,25.3041,334.8092,0.00016678,2.366e-05,0.0,0 STARLINK-3775,1 52285U 22041AA  23030.49790559  .00002366  00000-0  16678-3 0  9995,2 52285  53.2160 160.7160 0002901  25.3041 334.8092 15.08829440 43141,6917.913,95.438,541.785,537.771,0.0
52285.0,STARLINK-3775,PAYLOAD,2023-01-31 11:47:45,15.08845917,0.0002835,53.218,156.2555,31.7623,328.354,0.00016392,2.322e-05,0.0,0 STARLINK-3775,1 52285U 22041AA  23031.49149772  .00002322  00000-0  16392-3 0  9996,2 52285  53.2180 156.2555 0002835  31.7623 328.3540 15.08845917 44520,6917.862,95.437,541.689,537.766,0.0
52285.0,STARLINK-3775,PAYLOAD,2023-01-31 18:09:17,15.08847807,0.0002646,53.2171,155.0647,26.5759,333.5368,0.00014612,2.038e-05,0.0,0 STARLINK-3775,1 52285U 22041AA  23031.75645584  .00002038  00000-0  14612-3 0  9994,2 52285  53.2171 155.0647 0002646  26.5759 333.5368 15.08847807 43335,6917.857,95.437,541.552,537.891,0.0
52285.0,STARLINK-3775,PAYLOAD,2023-02-01 13:13:55,15.08853284,0.000302,53.2169,151.4978,23.5719,336.5411,0.00061826,9.569e-05,0.0,0 STARLINK-3775,1 52285U 22041AA  23032.55133576  .00009569  00000-0  61826-3 0  9991,2 52285  53.2169 151.4978 0003020  23.5719 336.5411 15.08853284 43450,6917.84,95.437,541.794,537.616,0.0
52285.0,STARLINK-3775,PAYLOAD,2023-02-02 13:04:42,15.08841831,0.000316,53.2145,147.0355,18.7783,341.3326,-0.00011385,-2.1e-05,0.0,0 STARLINK-3775,1 52285U 22041AA  23033.54493329 -.00002100  00000-0 -11385-3 0  9997,2 52285  53.2145 147.0355 0003160  18.7783 341.3326 15.08841831 43607,6917.875,95.437,541.926,537.554,0.0
52285.0,STARLINK-3775,PAYLOAD,2023-02-02 17:50:51,15.08837483,0.0003266,53.2155,146.1458,19.1887,340.9227,-0.00021581,-3.722e-05,0.0,0 STARLINK-3775,1 52285U 22041AA  23033.74365506 -.00003722  00000-0 -21581-3 0  9994,2 52285  53.2155 146.1458 0003266  19.1887 340.9227 15.08837483 44861,6917.888,95.438,542.012,537.494,0.0
52285.0,STARLINK-3775,PAYLOAD,2023-02-03 08:09:19,15.08846312,0.0003513,53.2151,143.47,16.9155,343.1954,-2.8267e-05,-7.39e-06,0.0,0 STARLINK-3775,1 52285U 22041AA  23034.33980915 -.00000739  00000-0 -28267-4 0  9991,2 52285  53.2151 143.4700 0003513  16.9155 343.1954 15.08846312 44958,6917.861,95.437,542.156,537.296,0.0
52285.0,STARLINK-3775,PAYLOAD,2023-02-03 17:41:37,15.08857203,0.0003169,53.2154,141.6856,21.5507,338.5618,0.0002259,3.31e-05,0.0,0 STARLINK-3775,1 52285U 22041AA  23034.73724311  .00003310  00000-0  22590-3 0  9999,2 52285  53.2154 141.6856 0003169  21.5507 338.5618 15.08857203 45017,6917.828,95.436,541.885,537.501,0.0
52285.0,STARLINK-3775,PAYLOAD,2023-02-04 06:24:43,15.08847558,0.0003533,53.2151,139.3034,22.9628,337.1521,0.00021801,3.184e-05,0.0,0 STARLINK-3775,1 52285U 22041AA  23035.26716750  .00003184  00000-0  21801-3 0  9999,2 52285  53.2151 139.3034 0003533  22.9628 337.1521 15.08847558 45098,6917.857,95.437,542.166,537.278,0.0
52285.0,STARLINK-3775,PAYLOAD,2023-02-04 14:21:38,15.08849687,0.0003355,53.2149,137.8202,15.0844,345.0248,0.00027008,4.014e-05,0.0,0 STARLINK-3775,1 52285U 22041AA  23035.59836408  .00004014  00000-0  27008-3 0  9996,2 52285  53.2149 137.8202 0003355  15.0844 345.0248 15.08849687 43918,6917.851,95.437,542.037,537.395,0.0
52285.0,STARLINK-3775,PAYLOAD,2023-02-04 15:57:01,15.08850626,0.0003357,53.2149,137.5228,15.5099,344.5996,0.00027515,4.095e-05,0.0,0 STARLINK-3775,1 52285U 22041AA  23035.66460351  .00004095  00000-0  27515-3 0  9996,2 52285  53.2149 137.5228 0003357  15.5099 344.5996 15.08850626 43922,6917.848,95.437,542.035,537.391,0.0
52285.0,STARLINK-3775,PAYLOAD,2023-02-05 12:37:02,15.08845539,0.00035,53.2165,133.6566,17.2859,342.8251,-7.7015e-05,-1.515e-05,0.0,0 STARLINK-3775,1 52285U 22041AA  23036.52572306 -.00001515  00000-0 -77015-4 0  9993,2 52285  53.2165 133.6566 0003500  17.2859 342.8251 15.08845539 45288,6917.863,95.437,542.15,537.307,0.0
52285.0,STARLINK-3775,PAYLOAD,2023-02-05 15:47:48,15.08842029,0.00035,53.2165,133.0622,16.9473,343.1636,-0.00011383,-2.1e-05,0.0,0 STARLINK-3775,1 52285U 22041AA  23036.65820446 -.00002100  00000-0 -11383-3 0  9994,2 52285  53.2165 133.0622 0003500  16.9473 343.1636 15.08842029 44071,6917.874,95.437,542.16,537.318,0.0
52285.0,STARLINK-3775,PAYLOAD,2023-02-05 23:44:45,15.08829157,0.0003401,53.2152,131.5758,13.511,346.5972,-0.00028689,-4.851e-05,0.0,0 STARLINK-3775,1 52285U 22041AA  23036.98941160 -.00004851  00000-0 -28689-3 0  9999,2 52285  53.2152 131.5758 0003401  13.5110 346.5972 15.08829157 45350,6917.914,95.438,542.131,537.426,0.0
52285.0,STARLINK-3775,PAYLOAD,2023-02-06 10:52:27,15.08846116,0.000406,53.2156,129.4969,19.3022,340.8123,-0.00012858,-2.336e-05,0.0,0 STARLINK-3775,1 52285U 22041AA  23037.45309113 -.00002336  00000-0 -12858-3 0  9995,2 52285  53.2156 129.4969 0004060  19.3022 340.8123 15.08846116 45429,6917.862,95.437,542.535,536.918,0.0
52285.0,STARLINK-3775,PAYLOAD,2023-02-06 12:27:49,15.0887051,0.0004357,53.2153,129.1999,12.1886,347.9211,-0.00043787,-7.259e-05,0.0,0 STARLINK-3775,1 52285U 22041AA  23037.51932222 -.00007259  00000-0 -43787-3 0  9999,2 52285  53.2153 129.1999 0004357  12.1886 347.9211 15.08870510 44200,6917.787,95.436,542.666,536.638,0.0
52285.0,STARLINK-3775,PAYLOAD,2023-02-06 17:13:58,15.08855673,0.0003596,53.2157,128.3046,14.0938,346.0154,0.00011034,1.468e-05,0.0,0 STARLINK-3775,1 52285U 22041AA  23037.71803732  .00001468  00000-0  11034-3 0  9998,2 52285  53.2157 128.3046 0003596  14.0938 346.0154 15.08855673 45469,6917.832,95.437,542.185,537.21,0.0
52285.0,STARLINK-3775,PAYLOAD,2023-02-07 10:43:12,15.08855476,0.0003329,53.2153,125.032,13.7367,346.3715,0.00032112,4.828e-05,0.0,0 STARLINK-3775,1 52285U 22041AA  23038.44667656  .00004828  00000-0  32112-3 0  9995,2 52285  53.2153 125.0320 0003329  13.7367 346.3715 15.08855476 45579,6917.833,95.437,542.001,537.395,0.0
52285.0,STARLINK-3775,PAYLOAD,2023-02-07 12:18:35,15.08858539,0.0003001,53.2155,124.733,13.2983,346.8088,0.00034394,5.193e-05,0.0,0 STARLINK-3775,1 52285U 22041AA  23038.51291364  .00005193  00000-0  34394-3 0  9992,2 52285  53.2155 124.7330 0003001  13.2983 346.8088 15.08858539 44350,6917.824,95.436,541.765,537.613,0.0
52285.0,STARLINK-3775,PAYLOAD,2023-02-08 12:09:22,15.08848824,0.0003094,53.2154,120.2718,14.823,345.2852,-1.5472e-05,-5.35e-06,0.0,0 STARLINK-3775,1 52285U 22041AA  23039.50651124 -.00000535  00000-0 -15472-4 0  9990,2 52285  53.2154 120.2718 0003094  14.8230 345.2852 15.08848824 45735,6917.853,95.437,541.859,537.578,0.0
52285.0,STARLINK-3775,PAYLOAD,2023-02-08 16:55:31,15.08850783,0.0002998,53.2156,119.3788,15.4551,344.6532,1.2893e-05,-8.3e-07,0.0,0 STARLINK-3775,1 52285U 22041AA  23039.70522928 -.00000083  00000-0  12893-4 0  9992,2 52285  53.2156 119.3788 0002998  15.4551 344.6532 15.08850783 44530,6917.847,95.437,541.786,537.638,0.0
52285.0,STARLINK-3775,PAYLOAD,2023-02-09 10:24:46,15.08839437,0.0003199,53.2153,116.1084,15.903,344.2062,-0.00017222,-3.029e-05,0.0,0 STARLINK-3775,1 52285U 22041AA  23040.43387151 -.00003029  00000-0 -17222-3 0  9995,2 52285  53.2153 116.1084 0003199  15.9030 344.2062 15.08839437 44641,6917.882,95.438,541.96,537.534,0.0
52285.0,STARLINK-3775,PAYLOAD,2023-02-09 16:46:19,15.08839575,0.0003139,53.2156,114.9192,16.6899,343.4196,-0.00012597,-2.293e-05,0.0,0 STARLINK-3775,1 52285U 22041AA  23040.69883166 -.00002293  00000-0 -12597-3 0  9992,2 52285  53.2156 114.9192 0003139  16.6899 343.4196 15.08839575 45918,6917.882,95.438,541.918,537.575,0.0
52285.0,STARLINK-3775,PAYLOAD,2023-02-09 21:32:28,15.08846831,0.0003588,53.216,114.0298,14.5776,345.5319,-7.3092e-05,-1.452e-05,0.0,0 STARLINK-3775,1 52285U 22041AA  23040.89755285 -.00001452  00000-0 -73092-4 0  9998,2 52285  53.2160 114.0298 0003588  14.5776 345.5319 15.08846831 44710,6917.86,95.437,542.207,537.242,0.0
52285.0,STARLINK-3775,PAYLOAD,2023-02-10 03:54:01,15.08834336,0.0003621,53.216,112.8409,13.0931,347.0154,8.0598e-05,9.94e-06,0.0,0 STARLINK-3775,1 52285U 22041AA  23041.16251663  .00000994  00000-0  80598-4 0  9997,2 52285  53.2160 112.8409 0003621  13.0931 347.0154 15.08834336 44750,6917.898,95.438,542.268,537.258,0.0
52285.0,STARLINK-3775,PAYLOAD,2023-02-10 10:15:34,15.08827704,0.000359,53.2165,111.6509,13.6007,346.5081,1.2804e-05,-8.5e-07,0.0,0 STARLINK-3775,1 52285U 22041AA  23041.42748436 -.00000085  00000-0  12804-4 0  9992,2 52285  53.2165 111.6509 0003590  13.6007 346.5081 15.08827704 46024,6917.918,95.438,542.267,537.299,0.0
